{"type": "FeatureCollection", "features": [{"type": "Feature", "properties": {"norad_id": 22675, "name": "COSMOS 2251", "group": "cosmos-2251-debris", "lat": -28.20171451511779, "lon": -54.090927349128435, "alt_km": 779.5259867367467, "timestamp": "2025-12-13T08:49:16.083968+00:00", "meta": {"OBJECT_NAME": "COSMOS 2251", "OBJECT_ID": "1993-036A", "EPOCH": "2025-12-13T00:34:53.737248", "MEAN_MOTION": 14.33204911, "ECCENTRICITY": 0.00239682, "INCLINATION": 74.0396, "RA_OF_ASC_NODE": 315.3636, "ARG_OF_PERICENTER": 37.5374, "MEAN_ANOMALY": 322.7445, "EPHEMERIS_TYPE": 0, "CLASSIFICATION_TYPE": "U", "NORAD_CAT_ID": 22675, "ELEMENT_SET_NO": 999, "REV_AT_EPOCH": 69777, "BSTAR": 8.4386635e-05, "MEAN_MOTION_DOT": 2.07e-06, "MEAN_MOTION_DDOT": 0}, "tle": {"line1": "1 22675U 93036A   25347.02423307  .00000207  00000+0  84387-4 0  9997", "line2": "2 22675  74.0396 315.3636 0023968  37.5374 322.7445 14.33204911697778"}}, "geometry": {"type": "Point", "coordinates": [-54.090927349128435, -28.20171451511779]}}, {"type": "Feature", "properties": {"norad_id": 33757, "name": "COSMOS 2251 DEB", "group": "cosmos-2251-debris", "lat": 7.980279330021889, "lon": -35.23650990118644, "alt_km": 775.4361911176111, "timestamp": "2025-12-13T08:49:16.083991+00:00", "meta": {"OBJECT_NAME": "COSMOS 2251 DEB", "OBJECT_ID": "1993-036E", "EPOCH": "2025-12-13T00:42:29.645856", "MEAN_MOTION": 14.32581136, "ECCENTRICITY": 0.00152594, "INCLINATION": 74.0368, "RA_OF_ASC_NODE": 323.0806, "ARG_OF_PERICENTER": 336.2857, "MEAN_ANOMALY": 89.3757, "EPHEMERIS_TYPE": 0, "CLASSIFICATION_TYPE": "U", "NORAD_CAT_ID": 33757, "ELEMENT_SET_NO": 999, "REV_AT_EPOCH": 88000, "BSTAR": 7.2759782e-05, "MEAN_MOTION_DOT": 1.72e-06, "MEAN_MOTION_DDOT": 0}, "tle": {"line1": "1 33757U 93036E   25347.02950979  .00000172  00000+0  72760-4 0  9993", "line2": "2 33757  74.0368 323.0806 0015259 336.2857  89.3757 14.32581136880002"}}, "geometry": {"type": "Point", "coordinates": [-35.23650990118644, 7.980279330021889]}}, {"type": "Feature", "properties": {"norad_id": 33758, "name": "COSMOS 2251 DEB", "group": "cosmos-2251-debris", "lat": -3.1010929817386663, "lon": -147.04118004370818, "alt_km": 720.4922421841065, "timestamp": "2025-12-13T08:49:16.084005+00:00", "meta": {"OBJECT_NAME": "COSMOS 2251 DEB", "OBJECT_ID": "1993-036F", "EPOCH": "2025-12-12T21:19:55.490880", "MEAN_MOTION": 14.51597188, "ECCENTRICITY": 0.00173739, "INCLINATION": 74.028, "RA_OF_ASC_NODE": 214.7492, "ARG_OF_PERICENTER": 281.6736, "MEAN_ANOMALY": 94.4182, "EPHEMERIS_TYPE": 0, "CLASSIFICATION_TYPE": "U", "NORAD_CAT_ID": 33758, "ELEMENT_SET_NO": 999, "REV_AT_EPOCH": 88307, "BSTAR": 0.0011916499, "MEAN_MOTION_DOT": 4.758e-05, "MEAN_MOTION_DDOT": 0}, "tle": {"line1": "1 33758U 93036F   25346.88883670  .00004758  00000+0  11916-2 0  9998", "line2": "2 33758  74.0280 214.7492 0017373 281.6736  94.4182 14.51597188883075"}}, "geometry": {"type": "Point", "coordinates": [-147.04118004370818, -3.1010929817386663]}}, {"type": "Feature", "properties": {"norad_id": 33760, "name": "COSMOS 2251 DEB", "group": "cosmos-2251-debris", "lat": -72.34091809972482, "lon": 164.38200472738617, "alt_km": 786.0050896425464, "timestamp": "2025-12-13T08:49:16.084017+00:00", "meta": {"OBJECT_NAME": "COSMOS 2251 DEB", "OBJECT_ID": "1993-036H", "EPOCH": "2025-12-12T21:51:01.386144", "MEAN_MOTION": 14.35672963, "ECCENTRICITY": 0.00198626, "INCLINATION": 74.0321, "RA_OF_ASC_NODE": 281.1427, "ARG_OF_PERICENTER": 19.4051, "MEAN_ANOMALY": 41.5501, "EPHEMERIS_TYPE": 0, "CLASSIFICATION_TYPE": "U", "NORAD_CAT_ID": 33760, "ELEMENT_SET_NO": 999, "REV_AT_EPOCH": 88127, "BSTAR": 0.00017387227, "MEAN_MOTION_DOT": 4.77e-06, "MEAN_MOTION_DDOT": 0}, "tle": {"line1": "1 33760U 93036H   25346.91043271  .00000477  00000+0  17387-3 0  9993", "line2": "2 33760  74.0321 281.1427 0019862  19.4051  41.5501 14.35672963881277"}}, "geometry": {"type": "Point", "coordinates": [164.38200472738617, -72.34091809972482]}}, {"type": "Feature", "properties": {"norad_id": 33761, "name": "COSMOS 2251 DEB", "group": "cosmos-2251-debris", "lat": -25.643722706146722, "lon": 78.89667881006837, "alt_km": 764.6802886311016, "timestamp": "2025-12-13T08:49:16.084028+00:00", "meta": {"OBJECT_NAME": "COSMOS 2251 DEB", "OBJECT_ID": "1993-036J", "EPOCH": "2025-12-12T18:48:19.573632", "MEAN_MOTION": 14.42546094, "ECCENTRICITY": 0.00230763, "INCLINATION": 74.0366, "RA_OF_ASC_NODE": 252.0816, "ARG_OF_PERICENTER": 332.4531, "MEAN_ANOMALY": 82.8912, "EPHEMERIS_TYPE": 0, "CLASSIFICATION_TYPE": "U", "NORAD_CAT_ID": 33761, "ELEMENT_SET_NO": 999, "REV_AT_EPOCH": 88235, "BSTAR": 0.00074560049, "MEAN_MOTION_DOT": 2.455e-05, "MEAN_MOTION_DDOT": 0}, "tle": {"line1": "1 33761U 93036J   25346.78355988  .00002455  00000+0  74560-3 0  9994", "line2": "2 33761  74.0366 252.0816 0023076 332.4531  82.8912 14.42546094882356"}}, "geometry": {"type": "Point", "coordinates": [78.89667881006837, -25.643722706146722]}}, {"type": "Feature", "properties": {"norad_id": 33762, "name": "COSMOS 2251 DEB", "group": "cosmos-2251-debris", "lat": -15.439704838928012, "lon": 133.41174871848065, "alt_km": 794.5853911136146, "timestamp": "2025-12-13T08:49:16.084040+00:00", "meta": {"OBJECT_NAME": "COSMOS 2251 DEB", "OBJECT_ID": "1993-036K", "EPOCH": "2025-12-12T23:49:01.966368", "MEAN_MOTION": 14.33663867, "ECCENTRICITY": 0.00150131, "INCLINATION": 74.0416, "RA_OF_ASC_NODE": 309.5645, "ARG_OF_PERICENTER": 10.9758, "MEAN_ANOMALY": 49.4913, "EPHEMERIS_TYPE": 0, "CLASSIFICATION_TYPE": "U", "NORAD_CAT_ID": 33762, "ELEMENT_SET_NO": 999, "REV_AT_EPOCH": 88051, "BSTAR": 8.3769544e-05, "MEAN_MOTION_DOT": 2.07e-06, "MEAN_MOTION_DDOT": 0}, "tle": {"line1": "1 33762U 93036K   25346.99238387  .00000207  00000+0  83770-4 0  9998", "line2": "2 33762  74.0416 309.5645 0015013  10.9758  49.4913 14.33663867880516"}}, "geometry": {"type": "Point", "coordinates": [133.41174871848065, -15.439704838928012]}}, {"type": "Feature", "properties": {"norad_id": 33764, "name": "COSMOS 2251 DEB", "group": "cosmos-2251-debris", "lat": -10.464340591688075, "lon": -91.53299552136005, "alt_km": 770.3856676878631, "timestamp": "2025-12-13T08:49:16.084050+00:00", "meta": {"OBJECT_NAME": "COSMOS 2251 DEB", "OBJECT_ID": "1993-036M", "EPOCH": "2025-12-12T21:28:53.446656", "MEAN_MOTION": 14.39511322, "ECCENTRICITY": 0.00239484, "INCLINATION": 74.0336, "RA_OF_ASC_NODE": 272.3702, "ARG_OF_PERICENTER": 238.0849, "MEAN_ANOMALY": 183.3458, "EPHEMERIS_TYPE": 0, "CLASSIFICATION_TYPE": "U", "NORAD_CAT_ID": 33764, "ELEMENT_SET_NO": 999, "REV_AT_EPOCH": 88159, "BSTAR": 0.00052811703, "MEAN_MOTION_DOT": 1.626e-05, "MEAN_MOTION_DDOT": 0}, "tle": {"line1": "1 33764U 93036M   25346.89506304  .00001626  00000+0  52812-3 0  9994", "line2": "2 33764  74.0336 272.3702 0023948 238.0849 183.3458 14.39511322881595"}}, "geometry": {"type": "Point", "coordinates": [-91.53299552136005, -10.464340591688075]}}, {"type": "Feature", "properties": {"norad_id": 33765, "name": "COSMOS 2251 DEB", "group": "cosmos-2251-debris", "lat": -21.498614187928506, "lon": 165.323213536752, "alt_km": 528.2694493657609, "timestamp": "2025-12-13T08:49:16.084061+00:00", "meta": {"OBJECT_NAME": "COSMOS 2251 DEB", "OBJECT_ID": "1993-036N", "EPOCH": "2025-12-12T23:55:19.943904", "MEAN_MOTION": 15.10019107, "ECCENTRICITY": 0.00653509, "INCLINATION": 74.0087, "RA_OF_ASC_NODE": 172.5754, "ARG_OF_PERICENTER": 264.6525, "MEAN_ANOMALY": 217.5441, "EPHEMERIS_TYPE": 0, "CLASSIFICATION_TYPE": "U", "NORAD_CAT_ID": 33765, "ELEMENT_SET_NO": 999, "REV_AT_EPOCH": 89622, "BSTAR": 0.002492516, "MEAN_MOTION_DOT": 0.00042838, "MEAN_MOTION_DDOT": 0}, "tle": {"line1": "1 33765U 93036N   25346.99675861  .00042838  00000+0  24925-2 0  9994", "line2": "2 33765  74.0087 172.5754 0065350 264.6525 217.5441 15.10019107896228"}}, "geometry": {"type": "Point", "coordinates": [165.323213536752, -21.498614187928506]}}, {"type": "Feature", "properties": {"norad_id": 33766, "name": "COSMOS 2251 DEB", "group": "cosmos-2251-debris", "lat": 19.597122806426945, "lon": 139.63063250612973, "alt_km": 741.5799222480346, "timestamp": "2025-12-13T08:49:16.084072+00:00", "meta": {"OBJECT_NAME": "COSMOS 2251 DEB", "OBJECT_ID": "1993-036P", "EPOCH": "2025-12-12T21:00:53.389152", "MEAN_MOTION": 14.34935289, "ECCENTRICITY": 0.00641785, "INCLINATION": 74.1856, "RA_OF_ASC_NODE": 134.7322, "ARG_OF_PERICENTER": 338.0613, "MEAN_ANOMALY": 21.7794, "EPHEMERIS_TYPE": 0, "CLASSIFICATION_TYPE": "U", "NORAD_CAT_ID": 33766, "ELEMENT_SET_NO": 999, "REV_AT_EPOCH": 87747, "BSTAR": 0.00083253891, "MEAN_MOTION_DOT": 2.399e-05, "MEAN_MOTION_DDOT": 0}, "tle": {"line1": "1 33766U 93036P   25346.87561793  .00002399  00000+0  83254-3 0  9999", "line2": "2 33766  74.1856 134.7322 0064178 338.0613  21.7794 14.34935289877471"}}, "geometry": {"type": "Point", "coordinates": [139.63063250612973, 19.597122806426945]}}, {"type": "Feature", "properties": {"norad_id": 33768, "name": "COSMOS 2251 DEB", "group": "cosmos-2251-debris", "lat": 39.42187926976252, "lon": 25.27478233916268, "alt_km": 1175.1992903149176, "timestamp": "2025-12-13T08:49:16.084082+00:00", "meta": {"OBJECT_NAME": "COSMOS 2251 DEB", "OBJECT_ID": "1993-036R", "EPOCH": "2025-12-12T23:49:49.170144", "MEAN_MOTION": 13.58455064, "ECCENTRICITY": 0.03663419, "INCLINATION": 74.0681, "RA_OF_ASC_NODE": 219.4592, "ARG_OF_PERICENTER": 17.1439, "MEAN_ANOMALY": 86.485, "EPHEMERIS_TYPE": 0, "CLASSIFICATION_TYPE": "U", "NORAD_CAT_ID": 33768, "ELEMENT_SET_NO": 999, "REV_AT_EPOCH": 83299, "BSTAR": 0.00047466068, "MEAN_MOTION_DOT": 5.15e-06, "MEAN_MOTION_DDOT": 0}, "tle": {"line1": "1 33768U 93036R   25346.99293021  .00000515  00000+0  47466-3 0  9993", "line2": "2 33768  74.0681 219.4592 0366341  17.1439  86.4850 13.58455064832998"}}, "geometry": {"type": "Point", "coordinates": [25.27478233916268, 39.42187926976252]}}]}